[{"OBJECT_NAME":"STARLINK-31902","OBJECT_ID":"2024-084N","EPOCH":"2026-03-09T23:22:09.725952","MEAN_MOTION":15.27577381,"ECCENTRICITY":0.00011725,"INCLINATION":43.0054,"RA_OF_ASC_NODE":40.4457,"ARG_OF_PERICENTER":254.2353,"MEAN_ANOMALY":105.8369,"EPHEMERIS_TYPE":0,"CLASSIFICATION_TYPE":"U","NORAD_CAT_ID":59666,"ELEMENT_SET_NO":999,"REV_AT_EPOCH":10441,"BSTAR":-8.5764285e-5,"MEAN_MOTION_DOT":-2.621e-5,"MEAN_MOTION_DDOT":0},{"OBJECT_NAME":"SL-3 R\/B","OBJECT_ID":"1982-079B","EPOCH":"2026-03-09T22:18:18.158976","MEAN_MOTION":15.24805533,"ECCENTRICITY":0.00250364,"INCLINATION":81.1481,"RA_OF_ASC_NODE":192.7939,"ARG_OF_PERICENTER":164.0597,"MEAN_ANOMALY":196.143,"EPHEMERIS_TYPE":0,"CLASSIFICATION_TYPE":"U","NORAD_CAT_ID":13403,"ELEMENT_SET_NO":999,"REV_AT_EPOCH":37773,"BSTAR":0.00032485557,"MEAN_MOTION_DOT":8.157e-5,"MEAN_MOTION_DDOT":0}]
